IRIDIUM 36              
1 24967U 97056C   24133.95416705  .00001611  00000+0  53958-3 0  9996
2 24967  86.3967 341.0927 0002033  90.6564 269.4867 14.36782976394734
IRIDIUM 39              
1 25042U 97069D   24133.97184720  .00002653  00000+0  70936-3 0  9998
2 25042  86.3954  22.6211 0017408 195.2744 164.7936 14.47925488391029
IRIDIUM 38              
1 25043U 97069E   24133.97278966  .00001788  00000+0  59434-3 0  9993
2 25043  86.3993  41.4547 0002294  38.0750 322.0609 14.37238931388450
IRIDIUM 42              
1 25077U 97077A   24133.84454345  .00001728  00000+0  59390-3 0  9997
2 25077  86.3993  47.1861 0002282  69.0143 291.1298 14.35541709383741
IRIDIUM 44              
1 25078U 97077B   24133.96866433  .00001767  00000+0  56229-3 0  9997
2 25078  86.3994  30.1385 0000436  93.5396 266.5852 14.39374010386116
IRIDIUM 45              
1 25104U 97082A   24133.79664758  .00015214  00000+0  86159-3 0  9997
2 25104  86.3763 238.8451 0160846   8.9270 351.4760 15.02470361391546
IRIDIUM 24              
1 25105U 97082B   24133.82271032  .00002525  00000+0  77726-3 0  9992
2 25105  86.3917 249.8337 0010090 329.1926  30.8680 14.41148566385536
IRIDIUM 51              
1 25262U 98018A   24133.80746044  .00017134  00000+0  81443-3 0  9997
2 25262  86.3954 248.7618 0145909 313.4380  45.4789 15.10049516386073
